IRIDIUM 63              
1 25286U 98021B   25166.29882687  .00000359  00000+0  11560-3 0  9995
2 25286  86.3975  82.9249 0002074  82.9149 277.2284 14.36545546423579
IRIDIUM 69              
1 25319U 98026A   25166.52558574  .00000470  00000+0  14009-3 0  9993
2 25319  86.3969  96.1257 0004116  56.7566 303.4028 14.40968031422824
IRIDIUM 71              
1 25320U 98026B   25166.32433638  .00000390  00000+0  11490-3 0  9998
2 25320  86.3968  90.9012 0004388  88.6350 271.5353 14.41157258423326
IRIDIUM 73              
1 25344U 98032C   25166.61437666  .00000476  00000+0  11348-3 0  9995
2 25344  86.4413  47.4856 0002399  69.9651 290.1813 14.51714952430335
IRIDIUM 82              
1 25467U 98051A   25166.32956390  .00017990  00000+0  51709-3 0  9994
2 25467  86.3668 110.6521 0081945 304.9413  54.4157 15.32304009423675
